SPAWAR-CAL-R            
1 43776U 18099U   26067.65115975  .00003570  00000+0  25336-3 0  9990
2 43776  97.4524 111.5817 0019701 348.9052  11.1737 15.05212097396878
STARLINK-4085           
1 53262U 22086W   26068.61026809 -.00000031  00000+0  16130-4 0  9999
2 53262  53.2184 194.4805 0001322  77.4054 282.7086 15.08838893201053
